[
    {
        "Altitude(m)": 556376.4795593589,
        "Argument of Periapsis(deg)": 0.0,
        "Eccentricity": 0.0,
        "Inclination(deg)": 53.0,
        "Latitude(deg)": 37.245674255823154,
        "Longitude(deg)": -169.7047612312777,
        "Mean Anomaly(deg)": 130.90909999999997,
        "RAAN(deg)": 145.0,
        "Satellite Name": "Starlink Shell 1 646",
        "Satellite Number": 646,
        "Semi-Major Axis(m)": 6931778.249405717,
        "Time(s)": 0
    },
    {
        "Altitude(m)": 556293.3496755766,
        "Argument of Periapsis(deg)": 0.00034857847951123687,
        "Eccentricity": 0.0,
        "Inclination(deg)": 53.0,
        "Latitude(deg)": 36.831450386981906,
        "Longitude(deg)": -169.15630079639826,
        "Mean Anomaly(deg)": 131.53593120355674,
        "RAAN(deg)": 144.99948122992254,
        "Satellite Name": "Starlink Shell 1 646",
        "Satellite Number": 646,
        "Semi-Major Axis(m)": 6931778.249405717,
        "Time(s)": 10
    },
    {
        "Altitude(m)": 556210.4159408461,
        "Argument of Periapsis(deg)": 0.0006971569590224737,
        "Eccentricity": 0.0,
        "Inclination(deg)": 53.0,
        "Latitude(deg)": 36.414303433639525,
        "Longitude(deg)": -168.61418101797383,
        "Mean Anomaly(deg)": 132.16276240711346,
        "RAAN(deg)": 144.99896245984505,
        "Satellite Name": "Starlink Shell 1 646",
        "Satellite Number": 646,
        "Semi-Major Axis(m)": 6931778.249405717,
        "Time(s)": 20
    },
    {
        "Altitude(m)": 556127.7339138417,
        "Argument of Periapsis(deg)": 0.0010457354385337105,
        "Eccentricity": 0.0,
        "Inclination(deg)": 53.0,
        "Latitude(deg)": 35.99430700243085,
        "Longitude(deg)": -168.07828211696034,
        "Mean Anomaly(deg)": 132.78959361067015,
        "RAAN(deg)": 144.9984436897676,
        "Satellite Name": "Starlink Shell 1 646",
        "Satellite Number": 646,
        "Semi-Major Axis(m)": 6931778.249405717,
        "Time(s)": 30
    },
    {
        "Altitude(m)": 556045.3592341687,
        "Argument of Periapsis(deg)": 0.0013943139180449475,
        "Eccentricity": 0.0,
        "Inclination(deg)": 53.0,
        "Latitude(deg)": 35.57153306019398,
        "Longitude(deg)": -167.54848423905014,
        "Mean Anomaly(deg)": 133.41642481422684,
        "RAAN(deg)": 144.99792491969012,
        "Satellite Name": "Starlink Shell 1 646",
        "Satellite Number": 646,
        "Semi-Major Axis(m)": 6931778.249405717,
        "Time(s)": 40
    },
    {
        "Altitude(m)": 555963.3475937659,
        "Argument of Periapsis(deg)": 0.0017428923975561844,
        "Eccentricity": 0.0,
        "Inclination(deg)": 53.0,
        "Latitude(deg)": 35.14605196377446,
        "Longitude(deg)": -167.02466857755928,
        "Mean Anomaly(deg)": 134.0432560177836,
        "RAAN(deg)": 144.99740614961266,
        "Satellite Name": "Starlink Shell 1 646",
        "Satellite Number": 646,
        "Semi-Major Axis(m)": 6931778.249405717,
        "Time(s)": 50
    },
    {
        "Altitude(m)": 555881.7547081846,
        "Argument of Periapsis(deg)": 0.002091470877067421,
        "Eccentricity": 0.0,
        "Inclination(deg)": 53.0,
        "Latitude(deg)": 34.7179324906558,
        "Longitude(deg)": -166.5067169731515,
        "Mean Anomaly(deg)": 134.67008722134034,
        "RAAN(deg)": 144.99688737953517,
        "Satellite Name": "Starlink Shell 1 646",
        "Satellite Number": 646,
        "Semi-Major Axis(m)": 6931778.249405717,
        "Time(s)": 60
    },
    {
        "Altitude(m)": 555800.6362878463,
        "Argument of Periapsis(deg)": 0.0024400493565786582,
        "Eccentricity": 0.0,
        "Inclination(deg)": 53.0,
        "Latitude(deg)": 34.28724187027265,
        "Longitude(deg)": -165.99451150384294,
        "Mean Anomaly(deg)": 135.29691842489697,
        "RAAN(deg)": 144.9963686094577,
        "Satellite Name": "Starlink Shell 1 646",
        "Satellite Number": 646,
        "Semi-Major Axis(m)": 6931778.249405717,
        "Time(s)": 70
    },
    {
        "Altitude(m)": 555720.0480092337,
        "Argument of Periapsis(deg)": 0.002788627836089895,
        "Eccentricity": 0.0,
        "Inclination(deg)": 53.0,
        "Latitude(deg)": 33.85404581587601,
        "Longitude(deg)": -165.48793557871517,
        "Mean Anomaly(deg)": 135.92374962845372,
        "RAAN(deg)": 144.9958498393802,
        "Satellite Name": "Starlink Shell 1 646",
        "Satellite Number": 646,
        "Semi-Major Axis(m)": 6931778.249405717,
        "Time(s)": 80
    },
    {
        "Altitude(m)": 555640.0454860698,
        "Argument of Periapsis(deg)": 0.0031372063156011316,
        "Eccentricity": 0.0,
        "Inclination(deg)": 53.0,
        "Latitude(deg)": 33.418408556822605,
        "Longitude(deg)": -164.98687351013083,
        "Mean Anomaly(deg)": 136.55058083201038,
        "RAAN(deg)": 144.99533106930275,
        "Satellite Name": "Starlink Shell 1 646",
        "Satellite Number": 646,
        "Semi-Major Axis(m)": 6931778.249405717,
        "Time(s)": 90
    },
    {
        "Altitude(m)": 555560.6842404687,
        "Argument of Periapsis(deg)": 0.0034857847951123688,
        "Eccentricity": 0.0,
        "Inclination(deg)": 53.0,
        "Latitude(deg)": 32.98039287117768,
        "Longitude(deg)": -164.4912100778409,
        "Mean Anomaly(deg)": 137.17741203556716,
        "RAAN(deg)": 144.9948122992253,
        "Satellite Name": "Starlink Shell 1 646",
        "Satellite Number": 646,
        "Semi-Major Axis(m)": 6931778.249405717,
        "Time(s)": 100
    },
    {
        "Altitude(m)": 555482.0196740974,
        "Argument of Periapsis(deg)": 0.003834363274623606,
        "Eccentricity": 0.0,
        "Inclination(deg)": 53.0,
        "Latitude(deg)": 32.54006011853242,
        "Longitude(deg)": -164.0008315983597,
        "Mean Anomaly(deg)": 137.80424323912388,
        "RAAN(deg)": 144.99429352914782,
        "Satellite Name": "Starlink Shell 1 646",
        "Satellite Number": 646,
        "Semi-Major Axis(m)": 6931778.249405717,
        "Time(s)": 110
    },
    {
        "Altitude(m)": 555404.1070393336,
        "Argument of Periapsis(deg)": 0.004182941754134842,
        "Eccentricity": 0.0,
        "Inclination(deg)": 53.0,
        "Latitude(deg)": 32.09747027293609,
        "Longitude(deg)": -163.5156254743395,
        "Mean Anomaly(deg)": 138.43107444268057,
        "RAAN(deg)": 144.99377475907033,
        "Satellite Name": "Starlink Shell 1 646",
        "Satellite Number": 646,
        "Semi-Major Axis(m)": 6931778.249405717,
        "Time(s)": 120
    },
    {
        "Altitude(m)": 555327.0014104698,
        "Argument of Periapsis(deg)": 0.004531520233646079,
        "Eccentricity": 0.0,
        "Inclination(deg)": 53.0,
        "Latitude(deg)": 31.652681955862274,
        "Longitude(deg)": -163.03547973727956,
        "Mean Anomaly(deg)": 139.05790564623732,
        "RAAN(deg)": 144.99325598899287,
        "Satellite Name": "Starlink Shell 1 646",
        "Satellite Number": 646,
        "Semi-Major Axis(m)": 6931778.249405717,
        "Time(s)": 130
    },
    {
        "Altitude(m)": 555250.7576549374,
        "Argument of Periapsis(deg)": 0.0048800987131573164,
        "Eccentricity": 0.0,
        "Inclination(deg)": 53.0,
        "Latitude(deg)": 31.205752469133934,
        "Longitude(deg)": -162.56028409688102,
        "Mean Anomaly(deg)": 139.68473684979398,
        "RAAN(deg)": 144.99273721891538,
        "Satellite Name": "Starlink Shell 1 646",
        "Satellite Number": 646,
        "Semi-Major Axis(m)": 6931778.249405717,
        "Time(s)": 140
    },
    {
        "Altitude(m)": 555175.430404625,
        "Argument of Periapsis(deg)": 0.005228677192668553,
        "Eccentricity": 0.0,
        "Inclination(deg)": 53.0,
        "Latitude(deg)": 30.756737827734458,
        "Longitude(deg)": -162.0899294717211,
        "Mean Anomaly(deg)": 140.31156805335075,
        "RAAN(deg)": 144.99221844883792,
        "Satellite Name": "Starlink Shell 1 646",
        "Satellite Number": 646,
        "Semi-Major Axis(m)": 6931778.249405717,
        "Time(s)": 150
    },
    {
        "Altitude(m)": 555101.0740272205,
        "Argument of Periapsis(deg)": 0.00557725567217979,
        "Eccentricity": 0.0,
        "Inclination(deg)": 53.0,
        "Latitude(deg)": 30.305692792444077,
        "Longitude(deg)": -161.62430751451902,
        "Mean Anomaly(deg)": 140.93839925690745,
        "RAAN(deg)": 144.99169967876045,
        "Satellite Name": "Starlink Shell 1 646",
        "Satellite Number": 646,
        "Semi-Major Axis(m)": 6931778.249405717,
        "Time(s)": 160
    },
    {
        "Altitude(m)": 555027.7425976631,
        "Argument of Periapsis(deg)": 0.0059258341516910265,
        "Eccentricity": 0.0,
        "Inclination(deg)": 53.0,
        "Latitude(deg)": 29.85267090224986,
        "Longitude(deg)": -161.16331164524465,
        "Mean Anomaly(deg)": 141.5652304604642,
        "RAAN(deg)": 144.991180908683,
        "Satellite Name": "Starlink Shell 1 646",
        "Satellite Number": 646,
        "Semi-Major Axis(m)": 6931778.249405717,
        "Time(s)": 170
    },
    {
        "Altitude(m)": 554955.4898697083,
        "Argument of Periapsis(deg)": 0.006274412631202263,
        "Eccentricity": 0.0,
        "Inclination(deg)": 53.0,
        "Latitude(deg)": 29.39772450647575,
        "Longitude(deg)": -160.70683656668496,
        "Mean Anomaly(deg)": 142.19206166402086,
        "RAAN(deg)": 144.9906621386055,
        "Satellite Name": "Starlink Shell 1 646",
        "Satellite Number": 646,
        "Semi-Major Axis(m)": 6931778.249405717,
        "Time(s)": 180
    }
]